HORYU-4                 
1 41340U 16012D   21091.85523373  .00000841  00000-0  56342-4 0  9998
2 41340  31.0050 294.7788 0013597 132.7070 227.4713 15.01810448281260
OUFTI-1                 
1 41458U 16025C   21091.89823587  .00002167  00000-0  10902-3 0  9990
2 41458  98.1309 224.4637 0158499 318.2125  40.7084 15.08220291270934
E-ST@R-II               
1 41459U 16025D   21092.16876240  .00001882  00000-0  96303-4 0  9999
2 41459  98.1270 223.8958 0160038 319.8731  39.0786 15.07677947270925
AAUSAT 4                
1 41460U 16025E   21092.15011078  .00002597  00000-0  12568-3 0  9994
2 41460  98.1282 227.3796 0147597 304.9932  53.7520 15.10547391271194
AIST-2D (RS-48)         
1 41465U 16026B   21092.19310940  .00002393  00000-0  70575-4 0  9991
2 41465  97.1176 338.8845 0009491 295.4814 222.3923 15.35912666275728
SAMSAT-218D             
1 41466U 16026C   21092.20526291  .00016458  00000-0  26635-3 0  9996
2 41466  97.1621   0.6500 0004007 191.7453 321.8495 15.52882559276996
NUSAT-1 (FRESCO)        
1 41557U 16033B   21092.16878505  .00002391  00000-0  87049-4 0  9996
2 41557  97.3915 186.5644 0014148 140.1705 307.3848 15.29121627269879
NUSAT-2 (BATATA)        
1 41558U 16033C   21092.20311677  .00002448  00000-0  83592-4 0  9996
2 41558  97.4009 190.0710 0013243 134.2309 284.1118 15.31219061270055
CARTOSAT-2C             
1 41599U 16040A   21092.18212787  .00000545  00000-0  29006-4 0  9994
2 41599  97.4082 153.0283 0012447 285.2486 137.4490 15.19281279264932
SATHYABAMASAT           
1 41600U 16040B   21091.88327426  .00002931  00000-0  11734-3 0  9999
2 41600  97.2811 151.0940 0011531 244.9284 115.0758 15.25787963265479
LAPAN-A3                
1 41603U 16040E   21092.16068843  .00000208  00000-0  12701-4 0  9990
2 41603  97.2659 141.9468 0011642 271.3431 173.6808 15.19991294264995
BIROS                   
1 41604U 16040F   21092.09561140  .00000833  00000-0  38909-4 0  9993
2 41604  97.2726 147.0468 0010585 246.5155 113.4970 15.22454447265283
SWAYAM                  
1 41607U 16040J   21092.08829134  .00002778  00000-0  11245-3 0  9998
2 41607  97.2764 150.1728 0011128 244.0820 115.9272 15.25464978265407
BEESAT-4                
1 41619U 16040W   21091.83766625  .00002584  00000-0  10578-3 0  9991
2 41619  97.2783 150.0562 0009306 236.4390 123.5960 15.25155885253330
3CAT-2                  
1 41732U 16051B   21092.21845463  .00002046  00000-0  76037-4 0  9996
2 41732  97.3783  13.1668 0014496  60.2035  99.2855 15.28603794257851
PRATHAM                 
1 41783U 16059A   21092.14454773  .00000078  00000-0  24116-4 0  9996
2 41783  97.9743 144.8285 0034740 125.4656 234.9797 14.63124232241098
ALSAT 1N                
1 41789U 16059G   21092.11650819  .00000134  00000-0  34046-4 0  9994
2 41789  97.9779 148.3072 0029673 111.5624 248.8753 14.64403353241277
LISHUI 1-01             
1 41845U 16066E   21092.20060594  .00003915  00000-0  51403-3 0  9995
2 41845  98.7269 191.6374 0269812 355.4775   4.3978 14.58665345232285
CARTOSAT-2D             
1 41948U 17008A   21092.07358638  .00000731  00000-0  37890-4 0  9998
2 41948  97.4503 153.4692 0009093  72.3094 287.9132 15.19272701228786
NAYIF-1 (EO-88)         
1 42017U 17008BX  21092.13703320  .00002958  00000-0  11166-3 0  9995
2 42017  97.3224 161.0974 0006669  34.6179 325.5493 15.27781780229604
ZHUHAI-1 02 (CAS-4B)    
1 42759U 17034B   21091.91153611  .00000344  00000-0  34071-4 0  9992
2 42759  43.0175 241.8602 0008637  36.9170 101.5544 15.10136088209578
ZHUHAI-1 01 (CAS-4A)    
1 42761U 17034D   21091.90661112  .00000368  00000-0  35469-4 0  9992
2 42761  43.0174 240.9936 0008993  38.6229  99.1776 15.10217495209570
UCLSAT                  
1 42765U 17036A   21092.13162784  .00002326  00000-0  97127-4 0  9990
2 42765  97.2590 144.0803 0012763  88.7781 271.4919 15.24547017209950
NIUSAT                  
1 42766U 17036B   21092.08177022  .00001760  00000-0  78644-4 0  9990
2 42766  97.2601 140.6791 0016902  85.9157 274.4011 15.22492357209597
CARTOSAT-2E             
1 42767U 17036C   21092.16086760  .00000621  00000-0  32722-4 0  9990
2 42767  97.5127 151.6284 0010150 111.9573 304.6646 15.19242221209368
LITUANICASAT-2          
1 42768U 17036D   21092.08345561  .00004136  00000-0  16425-3 0  9995
2 42768  97.2663 144.6072 0015663  79.2101 281.0900 15.25765520209826
AALTO-1                 
1 42775U 17036L   21092.11876576  .00001462  00000-0  65877-4 0  9997
2 42775  97.2572 140.9986 0015345  84.9448 275.3540 15.22484024209583
URSA MAIOR              
1 42776U 17036M   21092.13393614  .00001587  00000-0  70781-4 0  9995
2 42776  97.2586 141.4365 0015136  84.5371 275.7592 15.22728933209609
COMPASS 2               
1 42777U 17036N   21091.56994124  .00003360  00000-0  13604-3 0  9996
2 42777  97.2647 144.3494 0013543  82.3759 277.9017 15.25270683209691
MAX VALIER SAT          
1 42778U 17036P   21091.85159786  .00001682  00000-0  73479-4 0  9998
2 42778  97.2649 142.9453 0013766  87.9561 272.3253 15.23369286209622
PEGASUS                 
1 42784U 17036V   21092.09075282  .00002109  00000-0  89364-4 0  9995
2 42784  97.2603 143.6037 0013325  90.0542 270.2222 15.24145650209722
NUDTSAT                 
1 42787U 17036Y   21092.19027973  .00003562  00000-0  14134-3 0  9999
2 42787  97.2659 145.8619 0012496  80.6907 279.5745 15.25928743209707
SUCHAI                  
1 42788U 17036Z   21092.12795321  .00002631  00000-0  10842-3 0  9990
2 42788  97.2608 144.5316 0012826  87.9297 272.3410 15.24876547209850
SKCUBE                  
1 42789U 17036AA  21091.81638738  .00002400  00000-0  99872-4 0  9999
2 42789  97.2602 143.9775 0012758  89.4123 270.8577 15.24637581209711
VZLUSAT-1               
1 42790U 17036AB  21091.72420409  .00003414  00000-0  13569-3 0  9999
2 42790  97.2634 145.3987 0012082  86.5991 273.6629 15.25904882209788
ROBUSTA-1B              
1 42792U 17036AD  21092.12499966  .00002497  00000-0  10307-3 0  9997
2 42792  97.2605 144.6267 0012324  88.6065 271.6585 15.24868603209794
D-SAT                   
1 42794U 17036AF  21091.88027283  .00000633  00000-0  59316-4 0  9994
2 42794  97.4683 115.8165 0127108 121.4902 239.8811 14.91496851205647
NORSAT 2                
1 42828U 17042D   21092.10445692  .00000395  00000-0  44390-4 0  9994
2 42828  97.4890 326.9263 0015524  44.7686 315.4783 14.91780586202336
TECHNOSAT               
1 42829U 17042E   21092.09598208  .00000126  00000-0  17880-4 0  9991
2 42829  97.4808 325.6402 0015365  46.6489 313.6008 14.91246603202306
2017-042F               
1 42830U 17042F   21092.12832746  .00001212  00000-0  12232-3 0  9997
2 42830  97.4920 328.0080 0015225  39.5183 320.7144 14.92733014202419
FLYING LAPTOP           
1 42831U 17042G   21092.00299521  .00000553  00000-0  60762-4 0  9992
2 42831  97.4821 325.7551 0015240  47.2280 313.0235 14.91265453202296
CORVUS BC2              
1 42846U 17042X   21092.12593676  .00000432  00000-0  47490-4 0  9998
2 42846  97.4844 328.0030 0010605  41.0524 319.1492 14.92257574202454
CORVUS BC1              
1 42847U 17042Y   21091.90079014  .00000062  00000-0  11199-4 0  9995
2 42847  97.4847 328.0126 0010265  41.2116 318.9877 14.92359893202423
SIMPL                   
1 42983U 98067NF  21092.14437698  .00009725  00000-0  10053-3 0  9997
2 42983  51.6365 286.7296 0003409  68.2443 291.8915 15.65486261195449
CZ-4C R/B               
1 43012U 17072C   21092.08070431  .00000063  00000-0  24929-4 0  9993
2 43012  98.7332 103.1860 0126680 225.7847 133.2890 14.56156061179627
RADFXSAT (FOX-1B)       
1 43017U 17073E   21091.50304019  .00000681  00000-0  57974-4 0  9999
2 43017  97.7123 358.5303 0255049 191.0990 168.4533 14.79410885181745
EAGLESAT 1              
1 43018U 17073F   21092.19856398  .00001093  00000-0  88194-4 0  9994
2 43018  97.7127 359.9650 0251993 185.8615 173.9637 14.80380558181762
ECAMSAT                 
1 43019U 98067NG  21091.90093443  .00028832  00000-0  19073-3 0  9998
2 43019  51.6386 259.6774 0002310  48.9828 311.1371 15.75306719278102
INS-1C                  
1 43116U 18004F   21092.14124714  .00002328  00000-0  96460-4 0  9990
2 43116  97.4183 167.3357 0010772 108.5270 251.7138 15.24860009179011
FLOCK 3P'-3             
1 43119U 18004J   21092.19323812  .00001510  00000-0  65079-4 0  9992
2 43119  97.4178 166.3934 0011585 115.7739 244.4696 15.24059104178968
FLOCK 3P'-2             
1 43120U 18004K   21092.15333564  .00001309  00000-0  57288-4 0  9994
2 43120  97.4185 166.1811 0011611 116.3219 243.9212 15.23764925178949
FLOCK 3P'-1             
1 43121U 18004L   21092.19973580  .00004982  00000-0  19343-3 0  9996
2 43121  97.4175 167.7578 0010705 111.2584 248.9799 15.26494209178985
FLOCK 3P'-4             
1 43122U 18004M   21092.15019027  .00001367  00000-0  59669-4 0  9990
2 43122  97.4192 166.2715 0011380 117.9954 242.2436 15.23793281178946
MICROMAS-2A             
1 43131U 18004W   21091.78678278  .00003900  00000-0  15037-3 0  9992
2 43131  97.4153 168.2087 0010185 111.7400 248.4924 15.26870606179061
PICSAT                  
1 43132U 18004X   21091.78274094  .00002553  00000-0  10340-3 0  9996
2 43132  97.4134 167.0143 0010786 115.3829 244.8527 15.25542824178990
CNUSAIL-1               
1 43133U 18004Y   21092.15567195  .00001784  00000-0  75156-4 0  9998
2 43133  97.4116 166.5323 0010849 115.7741 244.4617 15.24617930178998
2018-004Z               
1 43134U 18004Z   21091.74834580  .00002402  00000-0  98533-4 0  9990
2 43134  97.4128 166.7193 0010628 116.4251 243.8079 15.25178357178977
FOX-1D (AO-92)          
1 43137U 18004AC  21092.15956343  .00001940  00000-0  80547-4 0  9993
2 43137  97.4118 166.9654 0010407 116.1706 244.0604 15.24993231179029
STEP CUBE LAB           
1 43138U 18004AD  21091.75970282  .00003535  00000-0  13800-3 0  9996
2 43138  97.4153 168.0744 0010130 115.3170 244.9119 15.26523931179052
